{
  "norad_id": 68130,
  "name": "GUOWANG GROUP 20 OBJECT B",
  "history": [
    {
      "epoch": "2026-03-26T18:09:03.081024Z",
      "apogee_km": 905.9342357032283,
      "perigee_km": 905.3107458908162,
      "latitude_deg": -1.914038418787062e-05,
      "longitude_deg": -95.44662651121016,
      "height_km": 905.9573742555525,
      "semi_major_axis_km": 7283.759490797022,
      "eccentricity": 4.28e-05,
      "inclination_deg": 50.0066,
      "raan_deg": 1.0171,
      "arg_perigee_deg": 307.3036,
      "mean_anomaly_deg": 52.7826,
      "mean_motion_rev_day": 13.9659141
    }
  ]
}